     2.100          NAVIGATION                              RINEX VERSION / TYPE
fic2rin                                 09/21/2012 00:10:33 PGM / RUN BY / DATE
                                                            END OF HEADER
13 12  9 20  4  0  0.0  .179945025593D-03 -.261479726760D-11  .000000000000D+00
     .160000000000D+02  .609062500000D+02  .433160900033D-08  .187302754652D+01
     .306032598019D-05  .480439746752D-02  .273063778877D-05  .515361549950D+04
     .360000000000D+06 -.931322574615D-08 -.104734684833D+01 -.949949026108D-07
     .984166200415D+00  .333437500000D+03  .207694177239D+01 -.821998525252D-08
    -.785747015231D-11  .100000000000D+01  .170600000000D+04  .000000000000D+00
     .240000000000D+01  .000000000000D+00 -.111758708954D-07  .160000000000D+02
     .352806000000D+06  .400000000000D+01
14 12  9 20  4  0  0.0  .213050283492D-03  .909494701773D-12  .000000000000D+00
     .350000000000D+02  .526250000000D+02  .446804325479D-08  .212524895852D+01
     .256858766079D-05  .681011553388D-02  .242702662945D-05  .515364263535D+04
     .360000000000D+06  .372529029846D-08 -.107486161198D+01 -.208616256714D-06
     .976938984264D+00  .341687500000D+03 -.204660323452D+01 -.826391565383D-08
     .489306095849D-10  .100000000000D+01  .170600000000D+04  .000000000000D+00
     .240000000000D+01  .000000000000D+00 -.931322574615D-08  .350000000000D+02
     .352806000000D+06  .400000000000D+01
15 12  9 20  4  0  0.0 -.956826843321D-04 -.682121026330D-12  .000000000000D+00
     .660000000000D+02  .650625000000D+02  .530522098375D-08  .170685333894D+01
     .361725687981D-05  .465717178304D-02  .287592411041D-05  .515363406754D+04
     .360000000000D+06  .931322574615D-07 -.116652436057D+01  .145286321640D-06
     .943663715884D+00  .313656250000D+03  .353302045363D-01 -.873143512789D-08
     .132148361653D-10  .100000000000D+01  .170600000000D+04  .000000000000D+00
     .240000000000D+01  .000000000000D+00 -.102445483208D-07  .660000000000D+02
     .352806000000D+06  .400000000000D+01
16 12  9 20  4  0  0.0 -.246376730502D-03 -.795807864051D-12  .000000000000D+00
     .770000000000D+02 -.402187500000D+02  .378194324740D-08 -.298520793245D+01
    -.207126140594D-05  .651929585729D-02  .118911266327D-04  .515375227356D+04
     .360000000000D+06 -.707805156708D-07  .996537604146D+00  .372529029846D-07
     .981890884428D+00  .161187500000D+03  .300988548353D-01 -.759495921768D-08
     .344657213499D-09  .100000000000D+01  .170600000000D+04  .000000000000D+00
     .240000000000D+01  .000000000000D+00 -.977888703346D-08  .770000000000D+02
     .352806000000D+06  .400000000000D+01
18 12  9 20  4  0  0.0  .215803273022D-03  .181898940355D-11  .000000000000D+00
     .102000000000D+03  .970937500000D+02  .511485591142D-08 -.244167123117D+01
     .486522912979D-05  .136441020295D-01  .993721187115D-05  .515373426628D+04
     .360000000000D+06  .242143869400D-06 -.218372129968D+01 -.707805156708D-07
     .928922994903D+00  .169312500000D+03 -.214288617977D+01 -.809605151876D-08
     .157506560780D-09  .100000000000D+01  .170600000000D+04  .000000000000D+00
     .240000000000D+01  .000000000000D+00 -.107102096081D-07  .102000000000D+03
     .352806000000D+06  .400000000000D+01
19 12  9 20  4  0  0.0 -.305465888232D-03 -.352429196937D-11  .000000000000D+00
     .530000000000D+02 -.146875000000D+01  .484877339945D-08  .156198406670D+01
    -.149011611938D-07  .858930975664D-02  .592693686485D-05  .515361363983D+04
     .360000000000D+06 -.204890966415D-07  .208900971278D+01  .912696123123D-07
     .960766632632D+00  .265625000000D+03  .251419289628D+00 -.824320050525D-08
     .171435712414D-09  .100000000000D+01  .170600000000D+04  .000000000000D+00
     .240000000000D+01  .000000000000D+00 -.149011611938D-07  .530000000000D+02
     .352806000000D+06  .400000000000D+01
20 12  9 20  4  0  0.0  .685839913785D-04  .795807864051D-12  .000000000000D+00
     .470000000000D+02  .856875000000D+02  .513378527133D-08 -.198603334386D+01
     .443682074547D-05  .502847135067D-02  .114273279905D-04  .515363790894D+04
     .360000000000D+06  .745058059692D-07 -.223736528411D+01 -.111758708954D-07
     .929524482449D+00  .141593750000D+03  .127260376160D+01 -.819784147300D-08
     .500020827875D-11  .100000000000D+01  .170600000000D+04  .000000000000D+00
     .240000000000D+01  .000000000000D+00 -.791624188423D-08  .470000000000D+02
     .352806000000D+06  .400000000000D+01
21 12  9 20  4  0  0.0 -.250785611570D-03 -.238742359215D-11  .000000000000D+00
     .740000000000D+02 -.253750000000D+02  .528129141556D-08 -.130099833004D+01
    -.113435089588D-05  .193324724678D-01  .835396349430D-05  .515379196930D+04
     .360000000000D+06  .437721610069D-06  .304998800479D+01  .234693288803D-06
     .931828610608D+00  .195687500000D+03 -.221574753153D+01 -.830141721592D-08
    -.310370071016D-09  .100000000000D+01  .170600000000D+04  .000000000000D+00
     .240000000000D+01  .000000000000D+00 -.111758708954D-07  .740000000000D+02
     .352806000000D+06  .400000000000D+01
22 12  9 20  4  0  0.0  .148081220686D-03  .568434188608D-12  .000000000000D+00
     .184000000000D+03  .101656250000D+03  .511628454236D-08  .308015595325D+01
     .510551035404D-05  .630087289028D-02  .108629465103D-04  .515368237686D+04
     .360000000000D+06  .689178705215D-07 -.218058605850D+01 -.121071934700D-06
     .926651184067D+00  .152593750000D+03 -.200373323066D+01 -.818819821418D-08
     .189293599124D-10  .100000000000D+01  .170600000000D+04  .000000000000D+00
     .485000000000D+01  .000000000000D+00 -.172294676304D-07  .184000000000D+03
     .352806000000D+06  .400000000000D+01
25 12  9 20  4  0  0.0  .434424728155D-04  .136424205266D-11  .000000000000D+00
     .860000000000D+02 -.255625000000D+02  .400016662300D-08 -.194563513320D+01
    -.126846134663D-05  .181154406164D-02  .111833214760D-04  .515366057777D+04
     .360000000000D+06 -.465661287308D-07  .942905350855D+00 -.111758708954D-06
     .969988514178D+00  .170968750000D+03  .777584191286D+00 -.771174979676D-08
     .250010413937D-09  .100000000000D+01  .170600000000D+04  .000000000000D+00
     .240000000000D+01  .000000000000D+00  .512227416039D-08  .860000000000D+02
     .352806000000D+06  .400000000000D+01
26 12  9 20  4  0  0.0 -.274677760899D-03  .131876731757D-10  .000000000000D+00
     .190000000000D+02  .453125000000D+02  .453947480163D-08  .103279129474D+01
     .233761966228D-05  .207909861347D-01  .356510281563D-05  .515366176033D+04
     .360000000000D+06 -.363215804100D-06 -.105381710970D+01  .119209289551D-06
     .981672425408D+00  .326593750000D+03  .120668204848D+01 -.859964392397D-08
    -.603596570791D-10  .100000000000D+01  .170600000000D+04  .000000000000D+00
     .240000000000D+01  .000000000000D+00 -.605359673500D-08  .190000000000D+02
     .352806000000D+06  .400000000000D+01
27 12  9 20  4  0  0.0  .433207489550D-03  .409272615798D-11  .000000000000D+00
     .640000000000D+02 -.858437500000D+02  .403588239642D-08  .184570067275D+01
    -.450573861599D-05  .217640816700D-01  .493787229061D-05  .515368650818D+04
     .360000000000D+06  .303611159325D-06 -.130276526883D+00  .130385160446D-07
     .982230114650D+00  .286312500000D+03 -.103396045301D+01 -.777603818892D-08
    -.584667210879D-09  .100000000000D+01  .170600000000D+04  .000000000000D+00
     .340000000000D+01  .000000000000D+00 -.419095158577D-08  .640000000000D+02
     .352806000000D+06  .400000000000D+01
28 12  9 20  4  0  0.0  .187142286450D-03  .375166564481D-11  .000000000000D+00
     .450000000000D+02 -.409687500000D+02  .369443960252D-08  .303335134783D+01
    -.209361314774D-05  .180708019761D-01  .106375664473D-04  .515363390541D+04
     .360000000000D+06  .178813934326D-06  .100311350576D+01 -.100582838058D-06
     .980274599869D+00  .181468750000D+03 -.182111310138D+01 -.728066041159D-08
     .318584698903D-09  .100000000000D+01  .170600000000D+04  .000000000000D+00
     .240000000000D+01  .000000000000D+00 -.107102096081D-07  .450000000000D+02
     .352806000000D+06  .400000000000D+01
29 12  9 20  4  0  0.0  .357407145202D-03  .420641299570D-11  .000000000000D+00
     .980000000000D+02  .243750000000D+01  .474162607919D-08 -.109968603418D+01
     .178813934326D-06  .182922021486D-02  .564381480217D-05  .515377655983D+04
     .360000000000D+06 -.298023223877D-07  .204492956700D+01  .614672899246D-07
     .963985232346D+00  .273031250000D+03 -.106485986782D+01 -.821927093705D-08
     .320370487574D-09  .100000000000D+01  .170600000000D+04  .000000000000D+00
     .340000000000D+01  .000000000000D+00 -.977888703346D-08  .980000000000D+02
     .352806000000D+06  .400000000000D+01
30 12  9 20  4  0  0.0 -.404244754463D-03  .196678229258D-10  .000000000000D+00
     .950000000000D+02 -.571875000000D+02  .415803034151D-08  .225062682814D+01
    -.292249023914D-05  .111491761636D-01  .114012509584D-04  .515371829605D+04
     .360000000000D+06  .175088644028D-06  .850960757931D+00  .186264514923D-08
     .961224394329D+00  .156312500000D+03  .160829994630D+01 -.769746348739D-08
     .196793911542D-09  .100000000000D+01  .170600000000D+04  .000000000000D+00
     .480000000000D+02  .000000000000D+00 -.419095158577D-08  .950000000000D+02
     .352806000000D+06  .400000000000D+01
31 12  9 20  4  0  0.0  .275553204119D-03  .250111042988D-11  .000000000000D+00
     .940000000000D+02 -.961875000000D+02  .412267172583D-08 -.430778387260D+00
    -.498071312904D-05  .781429884955D-02  .657886266708D-05  .515372996330D+04
     .360000000000D+06 -.819563865662D-07 -.748181890265D-01 -.521540641785D-07
     .981176462532D+00  .265218750000D+03 -.858164592263D+00 -.817784063989D-08
    -.381801617856D-09  .100000000000D+01  .170600000000D+04  .000000000000D+00
     .240000000000D+01  .000000000000D+00 -.135041773319D-07  .940000000000D+02
     .352806000000D+06  .400000000000D+01
